[{"OBJECT_NAME":"PHI 1","OBJECT_ID":"2025-276DP","EPOCH":"2026-03-09T17:39:12.133440","MEAN_MOTION":15.19973113,"ECCENTRICITY":0.00029619,"INCLINATION":97.4203,"RA_OF_ASC_NODE":144.0831,"ARG_OF_PERICENTER":121.0034,"MEAN_ANOMALY":239.1492,"EPHEMERIS_TYPE":0,"CLASSIFICATION_TYPE":"U","NORAD_CAT_ID":66775,"ELEMENT_SET_NO":999,"REV_AT_EPOCH":1533,"BSTAR":0.00038773813,"MEAN_MOTION_DOT":8.281e-5,"MEAN_MOTION_DDOT":0},{"OBJECT_NAME":"SITRO-TD-4","OBJECT_ID":"2025-313T","EPOCH":"2026-03-09T22:34:21.722880","MEAN_MOTION":15.21536332,"ECCENTRICITY":0.00145785,"INCLINATION":97.4001,"RA_OF_ASC_NODE":145.1931,"ARG_OF_PERICENTER":358.8539,"MEAN_ANOMALY":1.2661,"EPHEMERIS_TYPE":0,"CLASSIFICATION_TYPE":"U","NORAD_CAT_ID":67265,"ELEMENT_SET_NO":999,"REV_AT_EPOCH":1085,"BSTAR":0.00050945291,"MEAN_MOTION_DOT":0.00011446,"MEAN_MOTION_DDOT":0}]
